{"type": "FeatureCollection", "features": [ {"type": "Feature", "properties": {"norad_id": 29878, "name": "FENGYUN 1C DEB", "group": "fengyun-1c-debris", "lat": -43.04255581023166, "lon": 173.0169554190878, "alt_km": 555.3207289503744, "timestamp": "2025-12-20T16:47:36.558627+00:00", "meta": {"OBJECT_NAME": "FENGYUN 1C DEB", "OBJECT_ID": "1999-025FY", "EPOCH": "2025-12-20T10:37:50.435040", "MEAN_MOTION": 15.11442983, "ECCENTRICITY": 0.0024662, "INCLINATION": 96.9463, "RA_OF_ASC_NODE": 166.2457, "ARG_OF_PERICENTER": 143.983, "MEAN_ANOMALY": 216.307, "EPHEMERIS_TYPE": 0, "CLASSIFICATION_TYPE": "U", "NORAD_CAT_ID": 29878, "ELEMENT_SET_NO": 999, "REV_AT_EPOCH": 98764, "BSTAR": 0.0046522, "MEAN_MOTION_DOT": 0.00079952, "MEAN_MOTION_DDOT": 0}, "tle": {"line1": "1 29878U 99025FY  25354.44294485  .00079952  00000+0  46522-2 0  9990", "line2": "2 29878  96.9463 166.2457 0024662 143.9830 216.3070 15.11442983987643"}}, "geometry": {"type": "Point", "coordinates": [173.0169554190878, -43.04255581023166]}}, {"type": "Feature", "properties": {"norad_id": 29880, "name": "FENGYUN 1C DEB", "group": "fengyun-1c-debris", "lat": 81.71035879810746, "lon": -169.1716749487029, "alt_km": 740.3407876225237, "timestamp": "2025-12-20T16:47:36.558637+00:00", "meta": {"OBJECT_NAME": "FENGYUN 1C DEB", "OBJECT_ID": "1999-025GA", "EPOCH": "2025-12-19T06:37:49.600128", "MEAN_MOTION": 13.9393205, "ECCENTRICITY": 0.0232107, "INCLINATION": 98.1953, "RA_OF_ASC_NODE": 271.0878, "ARG_OF_PERICENTER": 83.2262, "MEAN_ANOMALY": 65.9598, "EPHEMERIS_TYPE": 0, "CLASSIFICATION_TYPE": "U", "NORAD_CAT_ID": 29880, "ELEMENT_SET_NO": 999, "REV_AT_EPOCH": 95653, "BSTAR": 0.00078339, "MEAN_MOTION_DOT": 1.259e-05, "MEAN_MOTION_DDOT": 0}, "tle": {"line1": "1 29880U 99025GA  25353.27626852  .00001259  00000+0  78339-3 0  9997", "line2": "2 29880  98.1953 271.0878 0232107  83.2262  65.9598 13.93932050956530"}}, "geometry": {"type": "Point", "coordinates": [-169.1716749487029, 81.71035879810746]}}, {"type": "Feature", "properties": {"norad_id": 29881, "name": "FENGYUN 1C DEB", "group": "fengyun-1c-debris", "lat": -77.94097137848388, "lon": 11.958076705251637, "alt_km": 1188.0235817023158, "timestamp": "2025-12-20T16:47:36.558647+00:00", "meta": {"OBJECT_NAME": "FENGYUN 1C DEB", "OBJECT_ID": "1999-025GB", "EPOCH": "2025-12-19T20:19:56.966304", "MEAN_MOTION": 13.59645098, "ECCENTRICITY": 0.02930126, "INCLINATION": 98.7224, "RA_OF_ASC_NODE": 325.2597, "ARG_OF_PERICENTER": 53.2496, "MEAN_ANOMALY": 16.892, "EPHEMERIS_TYPE": 0, "CLASSIFICATION_TYPE": "U", "NORAD_CAT_ID": 29881, "ELEMENT_SET_NO": 999, "REV_AT_EPOCH": 93331, "BSTAR": 0.0018987083, "MEAN_MOTION_DOT": 1.833e-05, "MEAN_MOTION_DDOT": 0}, "tle": {"line1": "1 29881U 99025GB  25353.84718711  .00001833  00000+0  18987-2 0  9997", "line2": "2 29881  98.7224 325.2597 0293012  53.2496  16.8920 13.59645098933316"}}, "geometry": {"type": "Point", "coordinates": [11.958076705251637, -77.94097137848388]}}, {"type": "Feature", "properties": {"norad_id": 29884, "name": "FENGYUN 1C DEB", "group": "fengyun-1c-debris", "lat": 31.726534064223873, "lon": 23.085020645601404, "alt_km": 750.9625444571438, "timestamp": "2025-12-20T16:47:36.558657+00:00", "meta": {"OBJECT_NAME": "FENGYUN 1C DEB", "OBJECT_ID": "1999-025GE", "EPOCH": "2025-12-20T00:15:36.899136", "MEAN_MOTION": 14.40323371, "ECCENTRICITY": 0.00444358, "INCLINATION": 99.6026, "RA_OF_ASC_NODE": 28.321, "ARG_OF_PERICENTER": 116.2549, "MEAN_ANOMALY": 306.5865, "EPHEMERIS_TYPE": 0, "CLASSIFICATION_TYPE": "U", "NORAD_CAT_ID": 29884, "ELEMENT_SET_NO": 999, "REV_AT_EPOCH": 98654, "BSTAR": 0.00043930323, "MEAN_MOTION_DOT": 1.356e-05, "MEAN_MOTION_DDOT": 0}, "tle": {"line1": "1 29884U 99025GE  25354.01084374  .00001356  00000+0  43930-3 0  9998", "line2": "2 29884  99.6026  28.3210 0044435 116.2549 306.5865 14.40323371986542"}}, "geometry": {"type": "Point", "coordinates": [23.085020645601404, 31.726534064223873]}}, {"type": "Feature", "properties": {"norad_id": 29885, "name": "FENGYUN 1C DEB", "group": "fengyun-1c-debris", "lat": -26.79487238747675, "lon": 104.95718995260809, "alt_km": 816.4688360705259, "timestamp": "2025-12-20T16:47:36.558668+00:00", "meta": {"OBJECT_NAME": "FENGYUN 1C DEB", "OBJECT_ID": "1999-025GF", "EPOCH": "2025-12-20T09:38:01.120704", "MEAN_MOTION": 14.13584806, "ECCENTRICITY": 0.0118802, "INCLINATION": 98.3564, "RA_OF_ASC_NODE": 288.9353, "ARG_OF_PERICENTER": 142.2734, "MEAN_ANOMALY": 346.1902, "EPHEMERIS_TYPE": 0, "CLASSIFICATION_TYPE": "U", "NORAD_CAT_ID": 29885, "ELEMENT_SET_NO": 999, "REV_AT_EPOCH": 97565, "BSTAR": 9.5136e-05, "MEAN_MOTION_DOT": 1.53e-06, "MEAN_MOTION_DDOT": 0}, "tle": {"line1": "1 29885U 99025GF  25354.40140186  .00000153  00000+0  95136-4 0  9996", "line2": "2 29885  98.3564 288.9353 0118802 142.2734 346.1902 14.13584806975657"}}, "geometry": {"type": "Point", "coordinates": [104.95718995260809, -26.79487238747675]}}, {"type": "Feature", "properties": {"norad_id": 29887, "name": "FENGYUN 1C DEB", "group": "fengyun-1c-debris", "lat": -13.491706004227341, "lon": -105.72549121837645, "alt_km": 943.3390943522791, "timestamp": "2025-12-20T16:47:36.558678+00:00", "meta": {"OBJECT_NAME": "FENGYUN 1C DEB", "OBJECT_ID": "1999-025GH", "EPOCH": "2025-12-20T04:25:56.133408", "MEAN_MOTION": 14.33738506, "ECCENTRICITY": 0.02865575, "INCLINATION": 98.7178, "RA_OF_ASC_NODE": 75.8646, "ARG_OF_PERICENTER": 337.1407, "MEAN_ANOMALY": 81.5503, "EPHEMERIS_TYPE": 0, "CLASSIFICATION_TYPE": "U", "NORAD_CAT_ID": 29887, "ELEMENT_SET_NO": 999, "REV_AT_EPOCH": 98081, "BSTAR": 0.0003516452, "MEAN_MOTION_DOT": 1.489e-05, "MEAN_MOTION_DDOT": 0}, "tle": {"line1": "1 29887U 99025GH  25354.18467747  .00001489  00000+0  35165-3 0  9996", "line2": "2 29887  98.7178  75.8646 0286557 337.1407  81.5503 14.33738506980818"}}, "geometry": {"type": "Point", "coordinates": [-105.72549121837645, -13.491706004227341]}}, {"type": "Feature", "properties": {"norad_id": 29888, "name": "FENGYUN 1C DEB", "group": "fengyun-1c-debris", "lat": -54.593523640608645, "lon": -5.440971955097997, "alt_km": 948.8545469857918, "timestamp": "2025-12-20T16:47:36.558688+00:00", "meta": {"OBJECT_NAME": "FENGYUN 1C DEB", "OBJECT_ID": "1999-025GJ", "EPOCH": "2025-12-20T10:36:09.048096", "MEAN_MOTION": 14.19871953, "ECCENTRICITY": 0.0274768, "INCLINATION": 99.1913, "RA_OF_ASC_NODE": 187.4572, "ARG_OF_PERICENTER": 3.4867, "MEAN_ANOMALY": 356.814, "EPHEMERIS_TYPE": 0, "CLASSIFICATION_TYPE": "U", "NORAD_CAT_ID": 29888, "ELEMENT_SET_NO": 999, "REV_AT_EPOCH": 97613, "BSTAR": 0.00026703, "MEAN_MOTION_DOT": 7.72e-06, "MEAN_MOTION_DDOT": 0}, "tle": {"line1": "1 29888U 99025GJ  25354.44177139  .00000772  00000+0  26703-3 0  9991", "line2": "2 29888  99.1913 187.4572 0274768   3.4867 356.8140 14.19871953976136"}}, "geometry": {"type": "Point", "coordinates": [-5.440971955097997, -54.593523640608645]}}, {"type": "Feature", "properties": {"norad_id": 29889, "name": "FENGYUN 1C DEB", "group": "fengyun-1c-debris", "lat": 38.52734376484679, "lon": -59.7908563681328, "alt_km": 905.14791807849, "timestamp": "2025-12-20T16:47:36.558698+00:00", "meta": {"OBJECT_NAME": "FENGYUN 1C DEB", "OBJECT_ID": "1999-025GK", "EPOCH": "2025-12-19T22:02:42.107424", "MEAN_MOTION": 14.13519281, "ECCENTRICITY": 0.0154189, "INCLINATION": 99.4772, "RA_OF_ASC_NODE": 111.7388, "ARG_OF_PERICENTER": 19.1487, "MEAN_ANOMALY": 107.1044, "EPHEMERIS_TYPE": 0, "CLASSIFICATION_TYPE": "U", "NORAD_CAT_ID": 29889, "ELEMENT_SET_NO": 999, "REV_AT_EPOCH": 97420, "BSTAR": 0.0001992, "MEAN_MOTION_DOT": 3.71e-06, "MEAN_MOTION_DDOT": 0}, "tle": {"line1": "1 29889U 99025GK  25353.91854291  .00000371  00000+0  19920-3 0  9992", "line2": "2 29889  99.4772 111.7388 0154189  19.1487 107.1044 14.13519281974207"}}, "geometry": {"type": "Point", "coordinates": [-59.7908563681328, 38.52734376484679]}}, {"type": "Feature", "properties": {"norad_id": 29890, "name": "FENGYUN 1C DEB", "group": "fengyun-1c-debris", "lat": -79.06086749536128, "lon": 176.52292376002293, "alt_km": 829.8072895049318, "timestamp": "2025-12-20T16:47:36.558709+00:00", "meta": {"OBJECT_NAME": "FENGYUN 1C DEB", "OBJECT_ID": "1999-025GL", "EPOCH": "2025-12-20T07:03:56.037312", "MEAN_MOTION": 14.23062938, "ECCENTRICITY": 0.0014516, "INCLINATION": 99.4686, "RA_OF_ASC_NODE": 116.3813, "ARG_OF_PERICENTER": 52.6324, "MEAN_ANOMALY": 307.6171, "EPHEMERIS_TYPE": 0, "CLASSIFICATION_TYPE": "U", "NORAD_CAT_ID": 29890, "ELEMENT_SET_NO": 999, "REV_AT_EPOCH": 97558, "BSTAR": 0.00061125, "MEAN_MOTION_DOT": 1.33e-05, "MEAN_MOTION_DDOT": 0}, "tle": {"line1": "1 29890U 99025GL  25354.29439858  .00001330  00000+0  61125-3 0  9994", "line2": "2 29890  99.4686 116.3813 0014516  52.6324 307.6171 14.23062938975581"}}, "geometry": {"type": "Point", "coordinates": [176.52292376002293, -79.06086749536128]}}, {"type": "Feature", "properties": {"norad_id": 29891, "name": "FENGYUN 1C DEB", "group": "fengyun-1c-debris", "lat": -77.32030939393478, "lon": 133.40692381355632, "alt_km": 860.0789587904701, "timestamp": "2025-12-20T16:47:36.558720+00:00", "meta": {"OBJECT_NAME": "FENGYUN 1C DEB", "OBJECT_ID": "1999-025GM", "EPOCH": "2025-12-19T22:40:30.916128", "MEAN_MOTION": 14.00007328, "ECCENTRICITY": 0.0061078, "INCLINATION": 98.7266, "RA_OF_ASC_NODE": 355.7396, "ARG_OF_PERICENTER": 240.0689, "MEAN_ANOMALY": 177.6632, "EPHEMERIS_TYPE": 0, "CLASSIFICATION_TYPE": "U", "NORAD_CAT_ID": 29891, "ELEMENT_SET_NO": 999, "REV_AT_EPOCH": 96589, "BSTAR": 0.00045661, "MEAN_MOTION_DOT": 6.41e-06, "MEAN_MOTION_DDOT": 0}, "tle": {"line1": "1 29891U 99025GM  25353.94480227  .00000641  00000+0  45661-3 0  9993", "line2": "2 29891  98.7266 355.7396 0061078 240.0689 177.6632 14.00007328965892"}}, "geometry": {"type": "Point", "coordinates": [133.40692381355632, -77.32030939393478]}}]}